{
  "type": "FeatureCollection",
  "features": [
    {
      "type": "Feature",
      "properties": {
        "norad_id": 61183,
        "name": "GSAT0226 (GALILEO 31)",
        "group": "gnss",
        "lat": -21.129413669204265,
        "lon": 61.73920042209376,
        "alt_km": 23225.577049114785,
        "timestamp": "2025-12-22T20:43:46.092948+00:00",
        "meta_object_name": "GSAT0226 (GALILEO 31)",
        "meta_object_id": "2024-167B",
        "meta_epoch": "2025-12-22T05:43:25.937760",
        "meta_mean_motion": 1.70473707,
        "meta_eccentricity": 0.00011776,
        "meta_inclination": 55.2367,
        "meta_ra_of_asc_node": 226.1757,
        "meta_arg_of_pericenter": 107.8451,
        "meta_mean_anomaly": 74.5096,
        "meta_ephemeris_type": 0,
        "meta_classification_type": "U",
        "meta_norad_cat_id": 61183,
        "meta_element_set_no": 999,
        "meta_rev_at_epoch": 783,
        "meta_bstar": 0,
        "meta_mean_motion_dot": 7.4e-07,
        "meta_mean_motion_ddot": 0,
        "tle_line1": "1 61183U 24167B   25356.23849465  .00000074  00000+0  00000+0 0  9990",
        "tle_line2": "2 61183  55.2367 226.1757 0001177 107.8451  74.5096  1.70473707  7836"
      },
      "geometry": {
        "type": "Point",
        "coordinates": [
          61.73920042209376,
          -21.129413669204265
        ]
      }
    },
    {
      "type": "Feature",
      "properties": {
        "norad_id": 61186,
        "name": "BEIDOU-3 M25 (C47)",
        "group": "gnss",
        "lat": 33.427935806182866,
        "lon": -23.725204062421252,
        "alt_km": 21527.378248156452,
        "timestamp": "2025-12-22T20:43:46.092963+00:00",
        "meta_object_name": "BEIDOU-3 M25 (C47)",
        "meta_object_id": "2024-168B",
        "meta_epoch": "2025-12-22T12:27:11.391840",
        "meta_mean_motion": 1.86230177,
        "meta_eccentricity": 0.0005446,
        "meta_inclination": 54.6334,
        "meta_ra_of_asc_node": 308.3821,
        "meta_arg_of_pericenter": 299.7491,
        "meta_mean_anomaly": 231.473,
        "meta_ephemeris_type": 0,
        "meta_classification_type": "U",
        "meta_norad_cat_id": 61186,
        "meta_element_set_no": 999,
        "meta_rev_at_epoch": 849,
        "meta_bstar": 0,
        "meta_mean_motion_dot": -5.7e-07,
        "meta_mean_motion_ddot": 0,
        "tle_line1": "1 61186U 24168B   25356.51888185 -.00000057  00000+0  00000+0 0  9999",
        "tle_line2": "2 61186  54.6334 308.3821 0005446 299.7491 231.4730  1.86230177  8490"
      },
      "geometry": {
        "type": "Point",
        "coordinates": [
          -23.725204062421252,
          33.427935806182866
        ]
      }
    },
    {
      "type": "Feature",
      "properties": {
        "norad_id": 61187,
        "name": "BEIDOU-3 M27 (C49)",
        "group": "gnss",
        "lat": 2.1106659800960976,
        "lon": 126.8341428351178,
        "alt_km": 21534.899716793625,
        "timestamp": "2025-12-22T20:43:46.092987+00:00",
        "meta_object_name": "BEIDOU-3 M27 (C49)",
        "meta_object_id": "2024-168C",
        "meta_epoch": "2025-12-22T03:50:36.507264",
        "meta_mean_motion": 1.86230347,
        "meta_eccentricity": 0.00025426,
        "meta_inclination": 54.6292,
        "meta_ra_of_asc_node": 308.3781,
        "meta_arg_of_pericenter": 340.4099,
        "meta_mean_anomaly": 85.2457,
        "meta_ephemeris_type": 0,
        "meta_classification_type": "U",
        "meta_norad_cat_id": 61187,
        "meta_element_set_no": 999,
        "meta_rev_at_epoch": 596,
        "meta_bstar": 0,
        "meta_mean_motion_dot": -5.9e-07,
        "meta_mean_motion_ddot": 0,
        "tle_line1": "1 61187U 24168C   25356.16014476 -.00000059  00000+0  00000+0 0  9997",
        "tle_line2": "2 61187  54.6292 308.3781 0002542 340.4099  85.2457  1.86230347  5960"
      },
      "geometry": {
        "type": "Point",
        "coordinates": [
          126.8341428351178,
          2.1106659800960976
        ]
      }
    },
    {
      "type": "Feature",
      "properties": {
        "norad_id": 62339,
        "name": "GPS BIII-7  (PRN 01)",
        "group": "gnss",
        "lat": 8.850356063974044,
        "lon": -12.401471209272493,
        "alt_km": 20150.06547314913,
        "timestamp": "2025-12-22T20:43:46.093001+00:00",
        "meta_object_name": "GPS BIII-7  (PRN 01)",
        "meta_object_id": "2024-242A",
        "meta_epoch": "2025-12-22T12:02:33.556992",
        "meta_mean_motion": 2.00568132,
        "meta_eccentricity": 0.00128077,
        "meta_inclination": 54.9208,
        "meta_ra_of_asc_node": 341.3454,
        "meta_arg_of_pericenter": 346.2078,
        "meta_mean_anomaly": 123.2241,
        "meta_ephemeris_type": 0,
        "meta_classification_type": "U",
        "meta_norad_cat_id": 62339,
        "meta_element_set_no": 999,
        "meta_rev_at_epoch": 771,
        "meta_bstar": 0,
        "meta_mean_motion_dot": -6.9e-07,
        "meta_mean_motion_ddot": 0,
        "tle_line1": "1 62339U 24242A   25356.50177728 -.00000069  00000+0  00000+0 0  9999",
        "tle_line2": "2 62339  54.9208 341.3454 0012807 346.2078 123.2241  2.00568132  7712"
      },
      "geometry": {
        "type": "Point",
        "coordinates": [
          -12.401471209272493,
          8.850356063974044
        ]
      }
    },
    {
      "type": "Feature",
      "properties": {
        "norad_id": 62850,
        "name": "NVS-02 (IRNSS-1K)",
        "group": "gnss",
        "lat": -9.601884571121671,
        "lon": 170.2012210184486,
        "alt_km": 36773.40585314907,
        "timestamp": "2025-12-22T20:43:46.093018+00:00",
        "meta_object_name": "NVS-02 (IRNSS-1K)",
        "meta_object_id": "2025-020A",
        "meta_epoch": "2025-12-22T04:45:05.885856",
        "meta_mean_motion": 2.17601308,
        "meta_eccentricity": 0.73473359,
        "meta_inclination": 20.961,
        "meta_ra_of_asc_node": 324.2351,
        "meta_arg_of_pericenter": 32.365,
        "meta_mean_anomaly": 356.4574,
        "meta_ephemeris_type": 0,
        "meta_classification_type": "U",
        "meta_norad_cat_id": 62850,
        "meta_element_set_no": 999,
        "meta_rev_at_epoch": 712,
        "meta_bstar": 0.00023462008,
        "meta_mean_motion_dot": 1.43e-06,
        "meta_mean_motion_ddot": 0,
        "tle_line1": "1 62850U 25020A   25356.19798479  .00000143  00000+0  23462-3 0  9992",
        "tle_line2": "2 62850  20.9610 324.2351 7347335  32.3650 356.4574  2.17601308  7124"
      },
      "geometry": {
        "type": "Point",
        "coordinates": [
          170.2012210184486,
          -9.601884571121671
        ]
      }
    },
    {
      "type": "Feature",
      "properties": {
        "norad_id": 62876,
        "name": "QZS-6 (QZSS/PRN 200)",
        "group": "gnss",
        "lat": 0.06359961735998168,
        "lon": 133.13336264960208,
        "alt_km": 35791.60292967178,
        "timestamp": "2025-12-22T20:43:46.093034+00:00",
        "meta_object_name": "QZS-6 (QZSS/PRN 200)",
        "meta_object_id": "2025-023A",
        "meta_epoch": "2025-12-22T13:35:44.450016",
        "meta_mean_motion": 1.00271619,
        "meta_eccentricity": 0.00015311,
        "meta_inclination": 0.0534,
        "meta_ra_of_asc_node": 71.4993,
        "meta_arg_of_pericenter": 208.9495,
        "meta_mean_anomaly": 105.4015,
        "meta_ephemeris_type": 0,
        "meta_classification_type": "U",
        "meta_norad_cat_id": 62876,
        "meta_element_set_no": 999,
        "meta_rev_at_epoch": 318,
        "meta_bstar": 0,
        "meta_mean_motion_dot": -2.12e-06,
        "meta_mean_motion_ddot": 0,
        "tle_line1": "1 62876U 25023A   25356.56648669 -.00000212  00000+0  00000+0 0  9996",
        "tle_line2": "2 62876   0.0534  71.4993 0001531 208.9495 105.4015  1.00271619  3188"
      },
      "geometry": {
        "type": "Point",
        "coordinates": [
          133.13336264960208,
          0.06359961735998168
        ]
      }
    },
    {
      "type": "Feature",
      "properties": {
        "norad_id": 63130,
        "name": "COSMOS 2584 (704K)",
        "group": "gnss",
        "lat": 47.21887908590785,
        "lon": -131.4378285227655,
        "alt_km": 19125.537973189006,
        "timestamp": "2025-12-22T20:43:46.093046+00:00",
        "meta_object_name": "COSMOS 2584 (704K)",
        "meta_object_id": "2025-042A",
        "meta_epoch": "2025-12-21T07:00:00.966240",
        "meta_mean_motion": 2.13103074,
        "meta_eccentricity": 0.00077364,
        "meta_inclination": 64.9804,
        "meta_ra_of_asc_node": 78.8547,
        "meta_arg_of_pericenter": 219.241,
        "meta_mean_anomaly": 140.7412,
        "meta_ephemeris_type": 0,
        "meta_classification_type": "U",
        "meta_norad_cat_id": 63130,
        "meta_element_set_no": 999,
        "meta_rev_at_epoch": 625,
        "meta_bstar": 0,
        "meta_mean_motion_dot": -1.1e-07,
        "meta_mean_motion_ddot": 0,
        "tle_line1": "1 63130U 25042A   25355.29167785 -.00000011  00000+0  00000+0 0  9992",
        "tle_line2": "2 63130  64.9804  78.8547 0007736 219.2410 140.7412  2.13103074  6250"
      },
      "geometry": {
        "type": "Point",
        "coordinates": [
          -131.4378285227655,
          47.21887908590785
        ]
      }
    }
  ]
}